[{"OBJECT_NAME":"YAOGAN-36 04C","OBJECT_ID":"2022-171E","EPOCH":"2026-03-09T18:55:44.889600","MEAN_MOTION":15.29852307,"ECCENTRICITY":0.00066848,"INCLINATION":34.9797,"RA_OF_ASC_NODE":96.6578,"ARG_OF_PERICENTER":275.3761,"MEAN_ANOMALY":84.6192,"EPHEMERIS_TYPE":0,"CLASSIFICATION_TYPE":"U","NORAD_CAT_ID":54750,"ELEMENT_SET_NO":999,"REV_AT_EPOCH":18024,"BSTAR":0.00054591902,"MEAN_MOTION_DOT":0.00016196,"MEAN_MOTION_DDOT":0},{"OBJECT_NAME":"STARLINK-32001","OBJECT_ID":"2024-117V","EPOCH":"2026-03-09T21:47:40.843104","MEAN_MOTION":15.3018548,"ECCENTRICITY":0.00013418,"INCLINATION":53.1616,"RA_OF_ASC_NODE":35.8403,"ARG_OF_PERICENTER":68.5082,"MEAN_ANOMALY":291.6062,"EPHEMERIS_TYPE":0,"CLASSIFICATION_TYPE":"U","NORAD_CAT_ID":60110,"ELEMENT_SET_NO":999,"REV_AT_EPOCH":9692,"BSTAR":3.9274042e-5,"MEAN_MOTION_DOT":8.04e-6,"MEAN_MOTION_DDOT":0}]
